CTC2_L_00015001-01
1 63767U 25858DR  26070.40842593  .00000000  00000+0  00000-0 0  9996
2 63767  80.0000   0.0000 0000000   0.0000   0.0000 15.80155680    19
CTC2_L_00015001-02
1 63768U 25153DB  26070.40842593  .00000000  00000+0  00000-0 0  9995
2 63768  80.0000   0.0000 0000000   0.0000  90.0000 15.80155680    19
CTC2_L_00015001-03
1 63769U 23655SU  26070.40842593  .00000000  00000+0  00000-0 0  9991
2 63769  80.0000   0.0000 0000000   0.0000 180.0000 15.80155680    10
CTC2_L_00015001-04
1 63770U 26708WP  26070.40842593  .00000000  00000+0  00000-0 0  9995
2 63770  80.0000   0.0000 0000000   0.0000 270.0000 15.80155680    12
CTC2_L_00015002-01
1 63771U 22722ZY  26070.40842593  .00000000  00000+0  00000-0 0  9998
2 63771  80.0000  12.0000 0000000   0.0000  12.0000 15.80155680    10
CTC2_L_00015002-02
1 63772U 24676XQ  26070.40842593  .00000000  00000+0  00000-0 0  9999
2 63772  80.0000  12.0000 0000000   0.0000 102.0000 15.80155680    11
CTC2_L_00015002-03
1 63773U 22355QV  26070.40842593  .00000000  00000+0  00000-0 0  9992
2 63773  80.0000  12.0000 0000000   0.0000 192.0000 15.80155680    11
CTC2_L_00015002-04
1 63774U 26511VR  26070.40842593  .00000000  00000+0  00000-0 0  9991
2 63774  80.0000  12.0000 0000000   0.0000 282.0000 15.80155680    12
CTC2_L_00015003-01
1 63775U 25300TT  26070.40842593  .00000000  00000+0  00000-0 0  9997
2 63775  80.0000  24.0000 0000000   0.0000  24.0000 15.80155680    10
CTC2_L_00015003-02
1 63776U 22951XC  26070.40842593  .00000000  00000+0  00000-0 0  9997
2 63776  80.0000  24.0000 0000000   0.0000 114.0000 15.80155680    11
CTC2_L_00015003-03
1 63777U 24544DZ  26070.40842593  .00000000  00000+0  00000-0 0  9998
2 63777  80.0000  24.0000 0000000   0.0000 204.0000 15.80155680    12
CTC2_L_00015003-04
1 63778U 24192NS  26070.40842593  .00000000  00000+0  00000-0 0  9998
2 63778  80.0000  24.0000 0000000   0.0000 294.0000 15.80155680    12
CTC2_L_00015004-01
1 63779U 22180ZW  26070.40842593  .00000000  00000+0  00000-0 0  9994
2 63779  80.0000  36.0000 0000000   0.0000  36.0000 15.80155680    10
CTC2_L_00015004-02
1 63780U 25318LO  26070.40842593  .00000000  00000+0  00000-0 0  9992
2 63780  80.0000  36.0000 0000000   0.0000 126.0000 15.80155680    12
CTC2_L_00015004-03
1 63781U 24099KI  26070.40842593  .00000000  00000+0  00000-0 0  9998
2 63781  80.0000  36.0000 0000000   0.0000 216.0000 15.80155680    13
CTC2_L_00015004-04
1 63782U 26520RS  26070.40842593  .00000000  00000+0  00000-0 0  9990
2 63782  80.0000  36.0000 0000000   0.0000 306.0000 15.80155680    14
CTC2_L_00015005-01
1 63783U 22064EV  26070.40842593  .00000000  00000+0  00000-0 0  9990
2 63783  80.0000  48.0000 0000000   0.0000  48.0000 15.80155680    11
CTC2_L_00015005-02
1 63784U 26197IQ  26070.40842593  .00000000  00000+0  00000-0 0  9992
2 63784  80.0000  48.0000 0000000   0.0000 138.0000 15.80155680    12
CTC2_L_00015005-03
1 63785U 24655KD  26070.40842593  .00000000  00000+0  00000-0 0  9990
2 63785  80.0000  48.0000 0000000   0.0000 228.0000 15.80155680    13
CTC2_L_00015005-04
1 63786U 22742BI  26070.40842593  .00000000  00000+0  00000-0 0  9996
2 63786  80.0000  48.0000 0000000   0.0000 318.0000 15.80155680    14
CTC2_L_00015006-01
1 63787U 25191CM  26070.40842593  .00000000  00000+0  00000-0 0  9998
2 63787  80.0000  60.0000 0000000   0.0000  60.0000 15.80155680    13
CTC2_L_00015006-02
1 63788U 24389FT  26070.40842593  .00000000  00000+0  00000-0 0  9997
2 63788  80.0000  60.0000 0000000   0.0000 150.0000 15.80155680    14
CTC2_L_00015006-03
1 63789U 22810FB  26070.40842593  .00000000  00000+0  00000-0 0  9995
2 63789  80.0000  60.0000 0000000   0.0000 240.0000 15.80155680    15
CTC2_L_00015006-04
1 63790U 25915KZ  26070.40842593  .00000000  00000+0  00000-0 0  9996
2 63790  80.0000  60.0000 0000000   0.0000 330.0000 15.80155680    17
CTC2_L_00015007-01
1 63791U 26531SC  26070.40842593  .00000000  00000+0  00000-0 0  9992
2 63791  80.0000  72.0000 0000000   0.0000  72.0000 15.80155680    14
CTC2_L_00015007-02
1 63792U 23782TE  26070.40842593  .00000000  00000+0  00000-0 0  9998
2 63792  80.0000  72.0000 0000000   0.0000 162.0000 15.80155680    15
CTC2_L_00015007-03
1 63793U 22171LN  26070.40842593  .00000000  00000+0  00000-0 0  9990
2 63793  80.0000  72.0000 0000000   0.0000 252.0000 15.80155680    16
CTC2_L_00015007-04
1 63794U 26727FL  26070.40842593  .00000000  00000+0  00000-0 0  9992
2 63794  80.0000  72.0000 0000000   0.0000 342.0000 15.80155680    17
CTC2_L_00015008-01
1 63795U 24117NC  26070.40842593  .00000000  00000+0  00000-0 0  9994
2 63795  80.0000  84.0000 0000000   0.0000  84.0000 15.80155680    14
CTC2_L_00015008-02
1 63796U 22750EW  26070.40842593  .00000000  00000+0  00000-0 0  9996
2 63796  80.0000  84.0000 0000000   0.0000 174.0000 15.80155680    15
CTC2_L_00015008-03
1 63797U 22686WB  26070.40842593  .00000000  00000+0  00000-0 0  9995
2 63797  80.0000  84.0000 0000000   0.0000 264.0000 15.80155680    16
CTC2_L_00015008-04
1 63798U 23024OX  26070.40842593  .00000000  00000+0  00000-0 0  9993
2 63798  80.0000  84.0000 0000000   0.0000 354.0000 15.80155680    17
CTC2_L_00015009-01
1 63799U 23158ZB  26070.40842593  .00000000  00000+0  00000-0 0  9992
2 63799  80.0000  96.0000 0000000   0.0000  96.0000 15.80155680    14
CTC2_L_00015009-02
1 63800U 26974YN  26070.40842593  .00000000  00000+0  00000-0 0  9994
2 63800  80.0000  96.0000 0000000   0.0000 186.0000 15.80155680    17
CTC2_L_00015009-03
1 63801U 26817NS  26070.40842593  .00000000  00000+0  00000-0 0  9991
2 63801  80.0000  96.0000 0000000   0.0000 276.0000 15.80155680    18
CTC2_L_00015009-04
1 63802U 23916IL  26070.40842593  .00000000  00000+0  00000-0 0  9999
2 63802  80.0000  96.0000 0000000   0.0000   6.0000 15.80155680    10
CTC2_L_00015010-01
1 63803U 26511WG  26070.40842593  .00000000  00000+0  00000-0 0  9994
2 63803  80.0000 108.0000 0000000   0.0000 108.0000 15.80155680    18
CTC2_L_00015010-02
1 63804U 25192AI  26070.40842593  .00000000  00000+0  00000-0 0  9999
2 63804  80.0000 108.0000 0000000   0.0000 198.0000 15.80155680    18
CTC2_L_00015010-03
1 63805U 23591AF  26070.40842593  .00000000  00000+0  00000-0 0  9991
2 63805  80.0000 108.0000 0000000   0.0000 288.0000 15.80155680    19
CTC2_L_00015010-04
1 63806U 25547WT  26070.40842593  .00000000  00000+0  00000-0 0  9995
2 63806  80.0000 108.0000 0000000   0.0000  18.0000 15.80155680    11
CTC2_L_00015011-01
1 63807U 23686KP  26070.40842593  .00000000  00000+0  00000-0 0  9998
2 63807  80.0000 120.0000 0000000   0.0000 120.0000 15.80155680    10
CTC2_L_00015011-02
1 63808U 26397DT  26070.40842593  .00000000  00000+0  00000-0 0  9991
2 63808  80.0000 120.0000 0000000   0.0000 210.0000 15.80155680    11
CTC2_L_00015011-03
1 63809U 26864AX  26070.40842593  .00000000  00000+0  00000-0 0  9991
2 63809  80.0000 120.0000 0000000   0.0000 300.0000 15.80155680    12
CTC2_L_00015011-04
1 63810U 24912LG  26070.40842593  .00000000  00000+0  00000-0 0  9995
2 63810  80.0000 120.0000 0000000   0.0000  30.0000 15.80155680    14
CTC2_L_00015012-01
1 63811U 22007IM  26070.40842593  .00000000  00000+0  00000-0 0  9999
2 63811  80.0000 132.0000 0000000   0.0000 132.0000 15.80155680    11
CTC2_L_00015012-02
1 63812U 22104NC  26070.40842593  .00000000  00000+0  00000-0 0  9998
2 63812  80.0000 132.0000 0000000   0.0000 222.0000 15.80155680    12
CTC2_L_00015012-03
1 63813U 23880DM  26070.40842593  .00000000  00000+0  00000-0 0  9991
2 63813  80.0000 132.0000 0000000   0.0000 312.0000 15.80155680    13
CTC2_L_00015012-04
1 63814U 22410AP  26070.40842593  .00000000  00000+0  00000-0 0  9990
2 63814  80.0000 132.0000 0000000   0.0000  42.0000 15.80155680    14
CTC2_L_00015013-01
1 63815U 25441YN  26070.40842593  .00000000  00000+0  00000-0 0  9998
2 63815  80.0000 144.0000 0000000   0.0000 144.0000 15.80155680    11
CTC2_L_00015013-02
1 63816U 24968BD  26070.40842593  .00000000  00000+0  00000-0 0  9992
2 63816  80.0000 144.0000 0000000   0.0000 234.0000 15.80155680    12
CTC2_L_00015013-03
1 63817U 25809HA  26070.40842593  .00000000  00000+0  00000-0 0  9998
2 63817  80.0000 144.0000 0000000   0.0000 324.0000 15.80155680    13
CTC2_L_00015013-04
1 63818U 26002PJ  26070.40842593  .00000000  00000+0  00000-0 0  9995
2 63818  80.0000 144.0000 0000000   0.0000  54.0000 15.80155680    14
CTC2_L_00015014-01
1 63819U 23624DQ  26070.40842593  .00000000  00000+0  00000-0 0  9993
2 63819  80.0000 156.0000 0000000   0.0000 156.0000 15.80155680    11
CTC2_L_00015014-02
1 63820U 22731II  26070.40842593  .00000000  00000+0  00000-0 0  9993
2 63820  80.0000 156.0000 0000000   0.0000 246.0000 15.80155680    13
CTC2_L_00015014-03
1 63821U 22387XO  26070.40842593  .00000000  00000+0  00000-0 0  9991
2 63821  80.0000 156.0000 0000000   0.0000 336.0000 15.80155680    14
CTC2_L_00015014-04
1 63822U 26687XS  26070.40842593  .00000000  00000+0  00000-0 0  9999
2 63822  80.0000 156.0000 0000000   0.0000  66.0000 15.80155680    15
CTC2_L_00015015-01
1 63823U 26758GC  26070.40842593  .00000000  00000+0  00000-0 0  9999
2 63823  80.0000 168.0000 0000000   0.0000 168.0000 15.80155680    12
CTC2_L_00015015-02
1 63824U 24005AZ  26070.40842593  .00000000  00000+0  00000-0 0  9993
2 63824  80.0000 168.0000 0000000   0.0000 258.0000 15.80155680    13
CTC2_L_00015015-03
1 63825U 23939PZ  26070.40842593  .00000000  00000+0  00000-0 0  9999
2 63825  80.0000 168.0000 0000000   0.0000 348.0000 15.80155680    14
CTC2_L_00015015-04
1 63826U 22180CM  26070.40842593  .00000000  00000+0  00000-0 0  9997
2 63826  80.0000 168.0000 0000000   0.0000  78.0000 15.80155680    15
CTC2_L_00015016-01
1 63827U 24180EJ  26070.40842593  .00000000  00000+0  00000-0 0  9990
2 63827  80.0000 180.0000 0000000   0.0000 180.0000 15.80155680    14
CTC2_L_00015016-02
1 63828U 22855LZ  26070.40842593  .00000000  00000+0  00000-0 0  9998
2 63828  80.0000 180.0000 0000000   0.0000 270.0000 15.80155680    15
